QIANFAN-73              
1 63159U 25046A   25344.60562826  .00000149  00000+0  21127-3 0  9993
2 63159  88.9759 320.2435 0016364 125.2323 235.0363 13.50976559 47125
QIANFAN-74              
1 63160U 25046B   25344.58902173  .00000154  00000+0  22015-3 0  9998
2 63160  88.9760 320.1338 0001992  79.2549 280.8826 13.50978884 47180
QIANFAN-75              
1 63161U 25046C   25344.57631009  .00000189  00000+0  27374-3 0  9996
2 63161  88.9761 320.3687 0017402 128.3951 231.8766 13.50977818 47058
QIANFAN-76              
1 63162U 25046D   25344.57292233  .00000116  00000+0  16067-3 0  9996
2 63162  88.9760 320.3499 0014933 128.1715 232.0784 13.50970024 47067
QIANFAN-77              
1 63163U 25046E   25344.60720634  .00000436  00000+0  30782-3 0  9997
2 63163  88.9762 318.3706 0017005  87.0516 273.2606 13.96086461 48157
QIANFAN-78              
1 63164U 25046F   25344.53976598  .00000142  00000+0  20147-3 0  9990
2 63164  88.9760 320.2172 0016255 130.8011 229.4553 13.50976712 47136
QIANFAN-79              
1 63165U 25046G   25344.56843092  .00000159  00000+0  22779-3 0  9997
2 63165  88.9763 320.3217 0015993 129.0483 231.2094 13.50978300 47082
QIANFAN-80              
1 63166U 25046H   25344.58494447  .00000174  00000+0  25121-3 0  9997
2 63166  88.9761 320.0268 0014866 132.4998 227.7412 13.50975907 47243
